KUIPER-00179            
1 67136U 25301D   26007.46609309  .00026983  00000+0  74965-3 0  9997
2 67136  51.8734   0.9228 0003429 116.5592 243.5746 15.36677645  4501
KUIPER-00181            
1 67137U 25301E   26007.49304987 -.00002173  00000+0 -51923-4 0  9992
2 67137  51.8657   1.0897 0010356 181.9203 178.1745 15.34900650  4484
KUIPER-00183            
1 67138U 25301F   26007.49745795  .00023215  00000+0  68890-3 0  9997
2 67138  51.8635   1.1146 0011077 183.9988 176.0911 15.34647384  4497
KUIPER-00184            
1 67139U 25301G   26007.42708266  .00016243  00000+0  48247-3 0  9990
2 67139  51.8645   1.3962 0009340 182.0536 178.0413 15.34883791  4590
KUIPER-00186            
1 67140U 25301H   26007.41826991  .00031889  00000+0  91117-3 0  9994
2 67140  51.8694   1.3471 0007780 166.0693 194.0509 15.35690507  4319
KUIPER-00187            
1 67141U 25301J   26007.47246218  .00025013  00000+0  70468-3 0  9997
2 67141  51.8710   0.9658 0004935 151.9570 208.1683 15.36279928  4329
KUIPER-00188            
1 67142U 25301K   26007.41966967  .00014483  00000+0  42273-3 0  9994
2 67142  51.8708   1.3570 0007590 172.8618 187.2477 15.35545103  4317
KUIPER-00191            
1 67143U 25301L   26007.48193823  .00026844  00000+0  76912-3 0  9996
2 67143  51.8678   1.0235 0006657 167.2209 192.8947 15.35703154  4356
KUIPER-00196            
1 67144U 25301M   26007.46980582  .00025920  00000+0  72555-3 0  9994
2 67144  51.8726   0.9482 0003919 129.7537 230.3795 15.36463371  4329
KUIPER-00204            
1 67145U 25301N   26007.50002314 -.00010191  00000+0 -32184-3 0  9998
2 67145  51.8773   0.7996 0004453 101.6322  52.7808 15.31179819  4434
KUIPER-00210            
1 67146U 25301P   26007.49609716  .00018147  00000+0  54071-3 0  9992
2 67146  51.8619   1.1039 0010419 189.2742 170.8053 15.34689792  4493
KUIPER-00221            
1 67147U 25301Q   26007.47391794  .00021531  00000+0  60959-3 0  9998
2 67147  51.8718   0.9752 0004977 148.0526 212.0763 15.36216898  4322
